OBJECT_NAME,OBJECT_ID,EPOCH,MEAN_MOTION,ECCENTRICITY,INCLINATION,RA_OF_ASC_NODE,ARG_OF_PERICENTER,MEAN_ANOMALY,EPHEMERIS_TYPE,CLASSIFICATION_TYPE,NORAD_CAT_ID,ELEMENT_SET_NO,REV_AT_EPOCH,BSTAR,MEAN_MOTION_DOT,MEAN_MOTION_DDOT
GEOSCAN 3 (RS92S3),2025-155T,2026-07-13T12:21:16.488288,15.36270815,.0008636,97.4545,164.7171,91.6837,268.5396,0,U,64893,999,8489,.31124E-3,.10938E-3,0
INNOSAT 3 (RS92S0),2025-155U,2026-07-13T11:34:15.474720,15.45729515,.0008351,97.4490,166.6463,94.9424,265.2778,0,U,64894,999,8502,.49586E-3,.23945E-3,0
KNACKSAT-2,1998-067XZ,2026-07-13T06:37:11.095104,15.62269029,.0008057,51.6258,163.0209,321.9354,38.1070,0,U,67683,999,2435,.4098E-3,.36553E-3,0
