GEOSCAN 3 (RS92S3)      
1 64893U 25155T   26194.51477417  .00010938  00000+0  31124-3 0  9990
2 64893  97.4545 164.7171 0008636  91.6837 268.5396 15.36270815 84896
INNOSAT 3 (RS92S0)      
1 64894U 25155U   26194.48212355  .00023945  00000+0  49586-3 0  9998
2 64894  97.4490 166.6463 0008351  94.9424 265.2778 15.45729515 85023
KNACKSAT-2              
1 67683U 98067XZ  26194.27582286  .00036553  00000+0  40980-3 0  9997
2 67683  51.6258 163.0209 0008057 321.9354  38.1070 15.62269029 24352
